ISS OBJECT XK           
1 65731U 98067XK  26065.22928559  .01455698  15311-2  13332-2 0  9998
2 65731  51.6141  64.6133 0004397  84.8967 275.2549 16.12113167 26348
CZ-4B R/B               
1 66989U 25289B   26065.08377233  .10603572  25591-5  18295-3 0  9995
2 66989  97.4928 143.7033 0010186  27.6912 332.4932 16.47343359 13772
STARLINK-36618          
1 67847U 26033AC  26065.25002315 -.00043346  89008-5 -12084-3 0  9993
2 67847  42.9843 290.4245 0001605 288.4130  11.3165 15.91559147  4118
STARLINK-36818          
1 67879U 26035A   26065.25002315 -.00938602  27644-3 -24212-2 0  9999
2 67879  97.2760 357.3220 0001305 123.4447 166.2094 15.95168120  3207
STARLINK-36821          
1 67880U 26035B   26065.25002315 -.00949107  28266-3 -24293-2 0  9993
2 67880  97.2754 357.3252 0001300 122.5958 174.3851 15.95315818  3208
STARLINK-36808          
1 67881U 26035C   26065.25002315 -.00951045  28353-3 -24435-2 0  9993
2 67881  97.2754 357.3231 0001101 112.0351 180.4869 15.95245627  3203
STARLINK-36817          
1 67882U 26035D   26065.25002315 -.00966635  29288-3 -24556-2 0  9997
2 67882  97.2745 357.3283 0001155 110.9056 194.8390 15.95459956  3209
STARLINK-36856          
1 67883U 26035E   26065.25002315 -.00957059  28730-3 -24403-2 0  9990
2 67883  97.2750 357.3269 0001144 118.4384 183.1889 15.95388685  3209
STARLINK-36842          
1 67884U 26035F   26065.25002315 -.01003222  31410-3 -25369-2 0  9997
2 67884  97.2744 357.3299 0001093 105.9520 203.6521 15.95550361  3205
STARLINK-36826          
1 67885U 26035G   26065.25002315 -.01025675  32756-3 -25825-2 0  9995
2 67885  97.2743 357.3315 0001173 118.2614 194.5025 15.95633689  3206
STARLINK-36390          
1 67886U 26035H   26065.25002315 -.01078848  36005-3 -27056-2 0  9995
2 67886  97.2738 357.3332 0001127 119.2578 198.1359 15.95715527  3256
STARLINK-36368          
1 67887U 26035J   26065.25002315 -.01112787  38159-3 -27813-2 0  9990
2 67887  97.2736 357.3350 0001129 114.9701 206.8483 15.95783600  3204
STARLINK-36801          
1 67888U 26035K   26065.25002315 -.01122012  38770-3 -27962-2 0  9997
2 67888  97.2734 357.3368 0001127 114.7468 211.3508 15.95839449  3200
STARLINK-36372          
1 67889U 26035L   26065.25002315 -.01127481  39168-3 -27927-2 0  9996
2 67889  97.2727 357.3400 0001124 112.8382 221.4865 15.95953876  3200
STARLINK-36363          
1 67890U 26035M   26065.25002315 -.01126559  39083-3 -27996-2 0  9995
2 67890  97.2733 357.3390 0001297 121.1776 209.6902 15.95892449  3206
STARLINK-36816          
1 67891U 26035N   26065.25002315 -.01188848  43585-3 -28180-2 0  9993
2 67891  97.2717 357.3638 0001094 109.3171 286.0535 15.96776234  3098
