[{"OBJECT_NAME":"ISS OBJECT XK","OBJECT_ID":"1998-067XK","EPOCH":"2026-03-06T05:30:10.274976","MEAN_MOTION":16.12113167,"ECCENTRICITY":0.00043978,"INCLINATION":51.6141,"RA_OF_ASC_NODE":64.6133,"ARG_OF_PERICENTER":84.8967,"MEAN_ANOMALY":275.2549,"EPHEMERIS_TYPE":0,"CLASSIFICATION_TYPE":"U","NORAD_CAT_ID":65731,"ELEMENT_SET_NO":999,"REV_AT_EPOCH":2634,"BSTAR":0.0013331831,"MEAN_MOTION_DOT":0.01455698,"MEAN_MOTION_DDOT":0.0015311062},{"OBJECT_NAME":"CZ-4B R/B","OBJECT_ID":"2025-289B","EPOCH":"2026-03-06T02:00:37.929312","MEAN_MOTION":16.47343359,"ECCENTRICITY":0.0010186,"INCLINATION":97.4928,"RA_OF_ASC_NODE":143.7033,"ARG_OF_PERICENTER":27.6912,"MEAN_ANOMALY":332.4932,"EPHEMERIS_TYPE":0,"CLASSIFICATION_TYPE":"U","NORAD_CAT_ID":66989,"ELEMENT_SET_NO":999,"REV_AT_EPOCH":1377,"BSTAR":0.00018295,"MEAN_MOTION_DOT":0.10603572,"MEAN_MOTION_DDOT":2.5591e-6},{"OBJECT_NAME":"STARLINK-36618","OBJECT_ID":"2026-033AC","EPOCH":"2026-03-06T06:00:02.000160","MEAN_MOTION":15.91559147,"ECCENTRICITY":0.00016052,"INCLINATION":42.9843,"RA_OF_ASC_NODE":290.4245,"ARG_OF_PERICENTER":288.413,"MEAN_ANOMALY":11.3165,"EPHEMERIS_TYPE":0,"CLASSIFICATION_TYPE":"U","NORAD_CAT_ID":67847,"ELEMENT_SET_NO":999,"REV_AT_EPOCH":411,"BSTAR":-0.00012084399,"MEAN_MOTION_DOT":-0.00043346,"MEAN_MOTION_DDOT":8.900815e-6},{"OBJECT_NAME":"STARLINK-36818","OBJECT_ID":"2026-035A","EPOCH":"2026-03-06T06:00:02.000160","MEAN_MOTION":15.9516812,"ECCENTRICITY":0.0001305,"INCLINATION":97.276,"RA_OF_ASC_NODE":357.322,"ARG_OF_PERICENTER":123.4447,"MEAN_ANOMALY":166.2094,"EPHEMERIS_TYPE":0,"CLASSIFICATION_TYPE":"U","NORAD_CAT_ID":67879,"ELEMENT_SET_NO":999,"REV_AT_EPOCH":320,"BSTAR":-0.0024212327,"MEAN_MOTION_DOT":-0.00938602,"MEAN_MOTION_DDOT":0.00027644126},{"OBJECT_NAME":"STARLINK-36821","OBJECT_ID":"2026-035B","EPOCH":"2026-03-06T06:00:02.000160","MEAN_MOTION":15.95315818,"ECCENTRICITY":0.00013009,"INCLINATION":97.2754,"RA_OF_ASC_NODE":357.3252,"ARG_OF_PERICENTER":122.5958,"MEAN_ANOMALY":174.3851,"EPHEMERIS_TYPE":0,"CLASSIFICATION_TYPE":"U","NORAD_CAT_ID":67880,"ELEMENT_SET_NO":999,"REV_AT_EPOCH":320,"BSTAR":-0.0024293071,"MEAN_MOTION_DOT":-0.00949107,"MEAN_MOTION_DDOT":0.00028266086},{"OBJECT_NAME":"STARLINK-36808","OBJECT_ID":"2026-035C","EPOCH":"2026-03-06T06:00:02.000160","MEAN_MOTION":15.95245627,"ECCENTRICITY":0.00011014,"INCLINATION":97.2754,"RA_OF_ASC_NODE":357.3231,"ARG_OF_PERICENTER":112.0351,"MEAN_ANOMALY":180.4869,"EPHEMERIS_TYPE":0,"CLASSIFICATION_TYPE":"U","NORAD_CAT_ID":67881,"ELEMENT_SET_NO":999,"REV_AT_EPOCH":320,"BSTAR":-0.0024434961,"MEAN_MOTION_DOT":-0.00951045,"MEAN_MOTION_DDOT":0.00028352538},{"OBJECT_NAME":"STARLINK-36817","OBJECT_ID":"2026-035D","EPOCH":"2026-03-06T06:00:02.000160","MEAN_MOTION":15.95459956,"ECCENTRICITY":0.00011553,"INCLINATION":97.2745,"RA_OF_ASC_NODE":357.3283,"ARG_OF_PERICENTER":110.9056,"MEAN_ANOMALY":194.839,"EPHEMERIS_TYPE":0,"CLASSIFICATION_TYPE":"U","NORAD_CAT_ID":67882,"ELEMENT_SET_NO":999,"REV_AT_EPOCH":320,"BSTAR":-0.0024555508,"MEAN_MOTION_DOT":-0.00966635,"MEAN_MOTION_DDOT":0.00029288466},{"OBJECT_NAME":"STARLINK-36856","OBJECT_ID":"2026-035E","EPOCH":"2026-03-06T06:00:02.000160","MEAN_MOTION":15.95388685,"ECCENTRICITY":0.00011443,"INCLINATION":97.275,"RA_OF_ASC_NODE":357.3269,"ARG_OF_PERICENTER":118.4384,"MEAN_ANOMALY":183.1889,"EPHEMERIS_TYPE":0,"CLASSIFICATION_TYPE":"U","NORAD_CAT_ID":67883,"ELEMENT_SET_NO":999,"REV_AT_EPOCH":320,"BSTAR":-0.0024403344,"MEAN_MOTION_DOT":-0.00957059,"MEAN_MOTION_DDOT":0.00028729923},{"OBJECT_NAME":"STARLINK-36842","OBJECT_ID":"2026-035F","EPOCH":"2026-03-06T06:00:02.000160","MEAN_MOTION":15.95550361,"ECCENTRICITY":0.00010936,"INCLINATION":97.2744,"RA_OF_ASC_NODE":357.3299,"ARG_OF_PERICENTER":105.952,"MEAN_ANOMALY":203.6521,"EPHEMERIS_TYPE":0,"CLASSIFICATION_TYPE":"U","NORAD_CAT_ID":67884,"ELEMENT_SET_NO":999,"REV_AT_EPOCH":320,"BSTAR":-0.0025369053,"MEAN_MOTION_DOT":-0.01003222,"MEAN_MOTION_DDOT":0.00031410125},{"OBJECT_NAME":"STARLINK-36826","OBJECT_ID":"2026-035G","EPOCH":"2026-03-06T06:00:02.000160","MEAN_MOTION":15.95633689,"ECCENTRICITY":0.00011733,"INCLINATION":97.2743,"RA_OF_ASC_NODE":357.3315,"ARG_OF_PERICENTER":118.2614,"MEAN_ANOMALY":194.5025,"EPHEMERIS_TYPE":0,"CLASSIFICATION_TYPE":"U","NORAD_CAT_ID":67885,"ELEMENT_SET_NO":999,"REV_AT_EPOCH":320,"BSTAR":-0.0025825469,"MEAN_MOTION_DOT":-0.01025675,"MEAN_MOTION_DDOT":0.00032755544},{"OBJECT_NAME":"STARLINK-36390","OBJECT_ID":"2026-035H","EPOCH":"2026-03-06T06:00:02.000160","MEAN_MOTION":15.95715527,"ECCENTRICITY":0.00011272,"INCLINATION":97.2738,"RA_OF_ASC_NODE":357.3332,"ARG_OF_PERICENTER":119.2578,"MEAN_ANOMALY":198.1359,"EPHEMERIS_TYPE":0,"CLASSIFICATION_TYPE":"U","NORAD_CAT_ID":67886,"ELEMENT_SET_NO":999,"REV_AT_EPOCH":325,"BSTAR":-0.0027056475,"MEAN_MOTION_DOT":-0.01078848,"MEAN_MOTION_DDOT":0.00036004715},{"OBJECT_NAME":"STARLINK-36368","OBJECT_ID":"2026-035J","EPOCH":"2026-03-06T06:00:02.000160","MEAN_MOTION":15.957836,"ECCENTRICITY":0.00011297,"INCLINATION":97.2736,"RA_OF_ASC_NODE":357.335,"ARG_OF_PERICENTER":114.9701,"MEAN_ANOMALY":206.8483,"EPHEMERIS_TYPE":0,"CLASSIFICATION_TYPE":"U","NORAD_CAT_ID":67887,"ELEMENT_SET_NO":999,"REV_AT_EPOCH":320,"BSTAR":-0.0027813107,"MEAN_MOTION_DOT":-0.01112787,"MEAN_MOTION_DDOT":0.00038158897},{"OBJECT_NAME":"STARLINK-36801","OBJECT_ID":"2026-035K","EPOCH":"2026-03-06T06:00:02.000160","MEAN_MOTION":15.95839449,"ECCENTRICITY":0.00011272,"INCLINATION":97.2734,"RA_OF_ASC_NODE":357.3368,"ARG_OF_PERICENTER":114.7468,"MEAN_ANOMALY":211.3508,"EPHEMERIS_TYPE":0,"CLASSIFICATION_TYPE":"U","NORAD_CAT_ID":67888,"ELEMENT_SET_NO":999,"REV_AT_EPOCH":320,"BSTAR":-0.0027961715,"MEAN_MOTION_DOT":-0.01122012,"MEAN_MOTION_DDOT":0.00038769763},{"OBJECT_NAME":"STARLINK-36372","OBJECT_ID":"2026-035L","EPOCH":"2026-03-06T06:00:02.000160","MEAN_MOTION":15.95953876,"ECCENTRICITY":0.00011249,"INCLINATION":97.2727,"RA_OF_ASC_NODE":357.34,"ARG_OF_PERICENTER":112.8382,"MEAN_ANOMALY":221.4865,"EPHEMERIS_TYPE":0,"CLASSIFICATION_TYPE":"U","NORAD_CAT_ID":67889,"ELEMENT_SET_NO":999,"REV_AT_EPOCH":320,"BSTAR":-0.002792695,"MEAN_MOTION_DOT":-0.01127481,"MEAN_MOTION_DDOT":0.00039167895},{"OBJECT_NAME":"STARLINK-36363","OBJECT_ID":"2026-035M","EPOCH":"2026-03-06T06:00:02.000160","MEAN_MOTION":15.95892449,"ECCENTRICITY":0.00012978,"INCLINATION":97.2733,"RA_OF_ASC_NODE":357.339,"ARG_OF_PERICENTER":121.1776,"MEAN_ANOMALY":209.6902,"EPHEMERIS_TYPE":0,"CLASSIFICATION_TYPE":"U","NORAD_CAT_ID":67890,"ELEMENT_SET_NO":999,"REV_AT_EPOCH":320,"BSTAR":-0.0027995605,"MEAN_MOTION_DOT":-0.01126559,"MEAN_MOTION_DDOT":0.00039082975},{"OBJECT_NAME":"STARLINK-36816","OBJECT_ID":"2026-035N","EPOCH":"2026-03-06T06:00:02.000160","MEAN_MOTION":15.96776234,"ECCENTRICITY":0.00010942,"INCLINATION":97.2717,"RA_OF_ASC_NODE":357.3638,"ARG_OF_PERICENTER":109.3171,"MEAN_ANOMALY":286.0535,"EPHEMERIS_TYPE":0,"CLASSIFICATION_TYPE":"U","NORAD_CAT_ID":67891,"ELEMENT_SET_NO":999,"REV_AT_EPOCH":309,"BSTAR":-0.0028180488,"MEAN_MOTION_DOT":-0.01188848,"MEAN_MOTION_DDOT":0.00043584707}]
